{"fetched_at":"2026-04-01T16:59:04Z","count":11445,"tles":[{"name":"STARLINK-36932","line1":"1 68331U 26059L   26090.66668981  .00044713  00000+0  22923-3 0  9999","line2":"2 68331  53.1595 252.6638 0000649  34.9968 216.3698 15.80841553  2570","category":"Starlink"}]}